<?xml version="1.0" encoding="UTF-8"?>
<ndm xmlns:xsi="http://www.w3.org/2001/XMLSchema-instance" xsi:noNamespaceSchemaLocation="https://sanaregistry.org/r/ndmxml_unqualified/ndmxml-2.0.0-master-2.0.xsd">
<omm id="CCSDS_OMM_VERS" version="2.0">
<header><CREATION_DATE/><ORIGINATOR/></header><body><segment><metadata><OBJECT_NAME>KUIPER-00071</OBJECT_NAME><OBJECT_ID>2025-151C</OBJECT_ID><CENTER_NAME>EARTH</CENTER_NAME><REF_FRAME>TEME</REF_FRAME><TIME_SYSTEM>UTC</TIME_SYSTEM><MEAN_ELEMENT_THEORY>SGP4</MEAN_ELEMENT_THEORY></metadata><data><meanElements><EPOCH>2025-07-27T14:11:19.810464</EPOCH><MEAN_MOTION>15.35586184</MEAN_MOTION><ECCENTRICITY>.0005138</ECCENTRICITY><INCLINATION>51.8782</INCLINATION><RA_OF_ASC_NODE>233.0126</RA_OF_ASC_NODE><ARG_OF_PERICENTER>177.7221</ARG_OF_PERICENTER><MEAN_ANOMALY>182.3790</MEAN_ANOMALY></meanElements><tleParameters><EPHEMERIS_TYPE>0</EPHEMERIS_TYPE><CLASSIFICATION_TYPE>U</CLASSIFICATION_TYPE><NORAD_CAT_ID>64818</NORAD_CAT_ID><ELEMENT_SET_NO>999</ELEMENT_SET_NO><REV_AT_EPOCH>173</REV_AT_EPOCH><BSTAR>.54005E-3</BSTAR><MEAN_MOTION_DOT>.18637E-3</MEAN_MOTION_DOT><MEAN_MOTION_DDOT>0</MEAN_MOTION_DDOT></tleParameters></data></segment></body></omm>
<omm id="CCSDS_OMM_VERS" version="2.0">
<header><CREATION_DATE/><ORIGINATOR/></header><body><segment><metadata><OBJECT_NAME>KUIPER-00072</OBJECT_NAME><OBJECT_ID>2025-151D</OBJECT_ID><CENTER_NAME>EARTH</CENTER_NAME><REF_FRAME>TEME</REF_FRAME><TIME_SYSTEM>UTC</TIME_SYSTEM><MEAN_ELEMENT_THEORY>SGP4</MEAN_ELEMENT_THEORY></metadata><data><meanElements><EPOCH>2025-07-27T14:00:01.999872</EPOCH><MEAN_MOTION>15.35191202</MEAN_MOTION><ECCENTRICITY>.0004844</ECCENTRICITY><INCLINATION>51.8772</INCLINATION><RA_OF_ASC_NODE>233.0721</RA_OF_ASC_NODE><ARG_OF_PERICENTER>190.3311</ARG_OF_PERICENTER><MEAN_ANOMALY>113.3920</MEAN_ANOMALY></meanElements><tleParameters><EPHEMERIS_TYPE>0</EPHEMERIS_TYPE><CLASSIFICATION_TYPE>U</CLASSIFICATION_TYPE><NORAD_CAT_ID>64819</NORAD_CAT_ID><ELEMENT_SET_NO>999</ELEMENT_SET_NO><REV_AT_EPOCH>280</REV_AT_EPOCH><BSTAR>.10557E-2</BSTAR><MEAN_MOTION_DOT>.3642E-3</MEAN_MOTION_DOT><MEAN_MOTION_DDOT>0</MEAN_MOTION_DDOT></tleParameters></data></segment></body></omm>
<omm id="CCSDS_OMM_VERS" version="2.0">
<header><CREATION_DATE/><ORIGINATOR/></header><body><segment><metadata><OBJECT_NAME>KUIPER-00073</OBJECT_NAME><OBJECT_ID>2025-151E</OBJECT_ID><CENTER_NAME>EARTH</CENTER_NAME><REF_FRAME>TEME</REF_FRAME><TIME_SYSTEM>UTC</TIME_SYSTEM><MEAN_ELEMENT_THEORY>SGP4</MEAN_ELEMENT_THEORY></metadata><data><meanElements><EPOCH>2025-07-27T14:13:39.817344</EPOCH><MEAN_MOTION>15.35377412</MEAN_MOTION><ECCENTRICITY>.0005235</ECCENTRICITY><INCLINATION>51.8786</INCLINATION><RA_OF_ASC_NODE>233.0244</RA_OF_ASC_NODE><ARG_OF_PERICENTER>185.9338</ARG_OF_PERICENTER><MEAN_ANOMALY>174.1587</MEAN_ANOMALY></meanElements><tleParameters><EPHEMERIS_TYPE>0</EPHEMERIS_TYPE><CLASSIFICATION_TYPE>U</CLASSIFICATION_TYPE><NORAD_CAT_ID>64820</NORAD_CAT_ID><ELEMENT_SET_NO>999</ELEMENT_SET_NO><REV_AT_EPOCH>291</REV_AT_EPOCH><BSTAR>.56958E-3</BSTAR><MEAN_MOTION_DOT>.19547E-3</MEAN_MOTION_DOT><MEAN_MOTION_DDOT>0</MEAN_MOTION_DDOT></tleParameters></data></segment></body></omm>
<omm id="CCSDS_OMM_VERS" version="2.0">
<header><CREATION_DATE/><ORIGINATOR/></header><body><segment><metadata><OBJECT_NAME>KUIPER-00074</OBJECT_NAME><OBJECT_ID>2025-151F</OBJECT_ID><CENTER_NAME>EARTH</CENTER_NAME><REF_FRAME>TEME</REF_FRAME><TIME_SYSTEM>UTC</TIME_SYSTEM><MEAN_ELEMENT_THEORY>SGP4</MEAN_ELEMENT_THEORY></metadata><data><meanElements><EPOCH>2025-07-27T12:39:24.894144</EPOCH><MEAN_MOTION>15.35409245</MEAN_MOTION><ECCENTRICITY>.000516</ECCENTRICITY><INCLINATION>51.8774</INCLINATION><RA_OF_ASC_NODE>233.3290</RA_OF_ASC_NODE><ARG_OF_PERICENTER>186.2377</ARG_OF_PERICENTER><MEAN_ANOMALY>173.8546</MEAN_ANOMALY></meanElements><tleParameters><EPHEMERIS_TYPE>0</EPHEMERIS_TYPE><CLASSIFICATION_TYPE>U</CLASSIFICATION_TYPE><NORAD_CAT_ID>64821</NORAD_CAT_ID><ELEMENT_SET_NO>999</ELEMENT_SET_NO><REV_AT_EPOCH>172</REV_AT_EPOCH><BSTAR>.60726E-3</BSTAR><MEAN_MOTION_DOT>.20891E-3</MEAN_MOTION_DOT><MEAN_MOTION_DDOT>0</MEAN_MOTION_DDOT></tleParameters></data></segment></body></omm>
<omm id="CCSDS_OMM_VERS" version="2.0">
<header><CREATION_DATE/><ORIGINATOR/></header><body><segment><metadata><OBJECT_NAME>KUIPER-00075</OBJECT_NAME><OBJECT_ID>2025-151G</OBJECT_ID><CENTER_NAME>EARTH</CENTER_NAME><REF_FRAME>TEME</REF_FRAME><TIME_SYSTEM>UTC</TIME_SYSTEM><MEAN_ELEMENT_THEORY>SGP4</MEAN_ELEMENT_THEORY></metadata><data><meanElements><EPOCH>2025-07-27T14:12:09.924192</EPOCH><MEAN_MOTION>15.35453422</MEAN_MOTION><ECCENTRICITY>.0004892</ECCENTRICITY><INCLINATION>51.8786</INCLINATION><RA_OF_ASC_NODE>233.0179</RA_OF_ASC_NODE><ARG_OF_PERICENTER>177.2039</ARG_OF_PERICENTER><MEAN_ANOMALY>182.8975</MEAN_ANOMALY></meanElements><tleParameters><EPHEMERIS_TYPE>0</EPHEMERIS_TYPE><CLASSIFICATION_TYPE>U</CLASSIFICATION_TYPE><NORAD_CAT_ID>64822</NORAD_CAT_ID><ELEMENT_SET_NO>999</ELEMENT_SET_NO><REV_AT_EPOCH>173</REV_AT_EPOCH><BSTAR>.56219E-3</BSTAR><MEAN_MOTION_DOT>.19335E-3</MEAN_MOTION_DOT><MEAN_MOTION_DDOT>0</MEAN_MOTION_DDOT></tleParameters></data></segment></body></omm>
<omm id="CCSDS_OMM_VERS" version="2.0">
<header><CREATION_DATE/><ORIGINATOR/></header><body><segment><metadata><OBJECT_NAME>KUIPER-00076</OBJECT_NAME><OBJECT_ID>2025-151H</OBJECT_ID><CENTER_NAME>EARTH</CENTER_NAME><REF_FRAME>TEME</REF_FRAME><TIME_SYSTEM>UTC</TIME_SYSTEM><MEAN_ELEMENT_THEORY>SGP4</MEAN_ELEMENT_THEORY></metadata><data><meanElements><EPOCH>2025-07-27T14:13:58.365696</EPOCH><MEAN_MOTION>15.35275723</MEAN_MOTION><ECCENTRICITY>.0004938</ECCENTRICITY><INCLINATION>51.8774</INCLINATION><RA_OF_ASC_NODE>233.0191</RA_OF_ASC_NODE><ARG_OF_PERICENTER>186.9083</ARG_OF_PERICENTER><MEAN_ANOMALY>173.1836</MEAN_ANOMALY></meanElements><tleParameters><EPHEMERIS_TYPE>0</EPHEMERIS_TYPE><CLASSIFICATION_TYPE>U</CLASSIFICATION_TYPE><NORAD_CAT_ID>64823</NORAD_CAT_ID><ELEMENT_SET_NO>999</ELEMENT_SET_NO><REV_AT_EPOCH>173</REV_AT_EPOCH><BSTAR>.3597E-3</BSTAR><MEAN_MOTION_DOT>.1215E-3</MEAN_MOTION_DOT><MEAN_MOTION_DDOT>0</MEAN_MOTION_DDOT></tleParameters></data></segment></body></omm>
<omm id="CCSDS_OMM_VERS" version="2.0">
<header><CREATION_DATE/><ORIGINATOR/></header><body><segment><metadata><OBJECT_NAME>KUIPER-00077</OBJECT_NAME><OBJECT_ID>2025-151J</OBJECT_ID><CENTER_NAME>EARTH</CENTER_NAME><REF_FRAME>TEME</REF_FRAME><TIME_SYSTEM>UTC</TIME_SYSTEM><MEAN_ELEMENT_THEORY>SGP4</MEAN_ELEMENT_THEORY></metadata><data><meanElements><EPOCH>2025-07-27T12:42:10.489248</EPOCH><MEAN_MOTION>15.35120023</MEAN_MOTION><ECCENTRICITY>.0005561</ECCENTRICITY><INCLINATION>51.8789</INCLINATION><RA_OF_ASC_NODE>233.3476</RA_OF_ASC_NODE><ARG_OF_PERICENTER>193.8847</ARG_OF_PERICENTER><MEAN_ANOMALY>166.1987</MEAN_ANOMALY></meanElements><tleParameters><EPHEMERIS_TYPE>0</EPHEMERIS_TYPE><CLASSIFICATION_TYPE>U</CLASSIFICATION_TYPE><NORAD_CAT_ID>64824</NORAD_CAT_ID><ELEMENT_SET_NO>999</ELEMENT_SET_NO><REV_AT_EPOCH>172</REV_AT_EPOCH><BSTAR>.54139E-3</BSTAR><MEAN_MOTION_DOT>.18405E-3</MEAN_MOTION_DOT><MEAN_MOTION_DDOT>0</MEAN_MOTION_DDOT></tleParameters></data></segment></body></omm>
<omm id="CCSDS_OMM_VERS" version="2.0">
<header><CREATION_DATE/><ORIGINATOR/></header><body><segment><metadata><OBJECT_NAME>KUIPER-00078</OBJECT_NAME><OBJECT_ID>2025-151K</OBJECT_ID><CENTER_NAME>EARTH</CENTER_NAME><REF_FRAME>TEME</REF_FRAME><TIME_SYSTEM>UTC</TIME_SYSTEM><MEAN_ELEMENT_THEORY>SGP4</MEAN_ELEMENT_THEORY></metadata><data><meanElements><EPOCH>2025-07-27T12:41:50.817696</EPOCH><MEAN_MOTION>15.35154814</MEAN_MOTION><ECCENTRICITY>.0005724</ECCENTRICITY><INCLINATION>51.8779</INCLINATION><RA_OF_ASC_NODE>233.3424</RA_OF_ASC_NODE><ARG_OF_PERICENTER>196.1845</ARG_OF_PERICENTER><MEAN_ANOMALY>163.8958</MEAN_ANOMALY></meanElements><tleParameters><EPHEMERIS_TYPE>0</EPHEMERIS_TYPE><CLASSIFICATION_TYPE>U</CLASSIFICATION_TYPE><NORAD_CAT_ID>64825</NORAD_CAT_ID><ELEMENT_SET_NO>999</ELEMENT_SET_NO><REV_AT_EPOCH>172</REV_AT_EPOCH><BSTAR>.53819E-3</BSTAR><MEAN_MOTION_DOT>.18315E-3</MEAN_MOTION_DOT><MEAN_MOTION_DDOT>0</MEAN_MOTION_DDOT></tleParameters></data></segment></body></omm>

</ndm>
