KUIPER-00071            
1 64818U 25151C   25208.59120151  .00018637  00000+0  54005-3 0  9993
2 64818  51.8782 233.0126 0005138 177.7221 182.3790 15.35586184  1738
KUIPER-00072            
1 64819U 25151D   25208.58335648  .00036420  00000+0  10557-2 0  9995
2 64819  51.8772 233.0721 0004844 190.3311 113.3920 15.35191202  2804
KUIPER-00073            
1 64820U 25151E   25208.59282196  .00019547  00000+0  56958-3 0  9994
2 64820  51.8786 233.0244 0005235 185.9338 174.1587 15.35377412  2910
KUIPER-00074            
1 64821U 25151F   25208.52737146  .00020891  00000+0  60726-3 0  9990
2 64821  51.8774 233.3290 0005160 186.2377 173.8546 15.35409245  1725
KUIPER-00075            
1 64822U 25151G   25208.59178153  .00019335  00000+0  56219-3 0  9998
2 64822  51.8786 233.0179 0004892 177.2039 182.8975 15.35453422  1731
KUIPER-00076            
1 64823U 25151H   25208.59303664  .00012150  00000+0  35970-3 0  9995
2 64823  51.8774 233.0191 0004938 186.9083 173.1836 15.35275723  1735
KUIPER-00077            
1 64824U 25151J   25208.52928807  .00018405  00000+0  54139-3 0  9998
2 64824  51.8789 233.3476 0005561 193.8847 166.1987 15.35120023  1729
KUIPER-00078            
1 64825U 25151K   25208.52906039  .00018315  00000+0  53819-3 0  9996
2 64825  51.8779 233.3424 0005724 196.1845 163.8958 15.35154814  1724
